OSCAR 7 (AO-7)          
1 07530U 74089B   26191.28585716 -.00000033  00000+0  81097-4 0  9999
2 07530 101.9903 204.7731 0012662  87.4352 340.9074 12.53698448363414
PHASE 3B (AO-10)        
1 14129U 83058B   26190.70523784  .00000106  00000+0  00000+0 0  9990
2 14129  25.9319 215.8523 6003352 121.8543 310.3469  2.05870648295953
UOSAT 2 (UO-11)         
1 14781U 84021B   26190.70623792  .00000917  00000+0  98723-4 0  9999
2 14781  97.8072 156.0317 0009167 106.4358 253.7868 14.90840274260487
LUSAT (LO-19)           
1 20442U 90005G   26190.99628548  .00000053  00000+0  35474-4 0  9999
2 20442  98.8846 213.4297 0012347 135.6081 224.6095 14.34129751905667
EYESAT A (AO-27)        
1 22825U 93061C   26191.14461452  .00000035  00000+0  30481-4 0  9991
2 22825  98.6870 258.5486 0009032  39.7683 320.4160 14.30948234710289
ITAMSAT (IO-26)         
1 22826U 93061D   26191.11717444  .00000031  00000+0  28397-4 0  9993
2 22826  98.6818 258.4411 0009248  23.7916 336.3692 14.31375759710597
RADIO ROSTO (RS15)      
1 23439U 94085A   26191.26383348 -.00000037  00000+0  14292-3 0  9994
2 23439  64.8160 265.8960 0156734 359.6165   0.4616 11.27583508298506
JAS-2 (FO-29)           
1 24278U 96046B   26191.00858423  .00000009  00000+0  43570-4 0  9998
2 24278  98.5223  36.7525 0350566  37.3768 325.1213 13.53275218476259
TECHSAT 1B (GO-32)      
1 25397U 98043D   26190.68260221  .00000032  00000+0  34171-4 0  9999
2 25397  99.0080 184.0097 0002037 123.5145 236.6227 14.24432637454531
ISS (ZARYA)             
1 25544U 98067A   26191.15356376  .00005628  00000+0  11035-3 0  9998
2 25544  51.6302 186.4276 0006683 277.8890  82.1339 15.48965714575314
PCSAT (NO-44)           
1 26931U 01043C   26190.99869585  .00000059  00000+0  52979-4 0  9995
2 26931  67.0489 185.2701 0005971 266.2172  93.8247 14.31963728293718
SAUDISAT 1C (SO-50)     
1 27607U 02058C   26191.08192997  .00000486  00000+0  75179-4 0  9991
2 27607  64.5517  58.1476 0074678 258.2262 101.0460 14.83092603267858
CUTE-1 (CO-55)          
1 27844U 03031E   26191.00816836  .00000182  00000+0  97603-4 0  9992
2 27844  98.6739 199.2802 0010718 116.0719 244.1564 14.24349450194929
CUBESAT XI-IV (CO-57)   
1 27848U 03031J   26190.51611381  .00000164  00000+0  91111-4 0  9997
2 27848  98.6771 198.4889 0010342 134.3964 225.8063 14.23632552194559
MOZHAETS 4 (RS22)       
1 27939U 03042A   26191.31243262  .00000791  00000+0  12995-3 0  9996
2 27939  98.3481  16.3258 0010851 188.9112 295.9010 14.73509472218958
CUBESAT XI-V            
1 28895U 05043F   26190.68856934  .00000955  00000+0  15777-3 0  9999
2 28895  98.3008 346.7863 0015063 131.3789 228.8716 14.72693331105061
CUTE-1.7+APD II (CO-65) 
1 32785U 08021C   26191.24996965  .00003132  00000+0  19861-3 0  9991
2 32785  97.8283 173.1529 0007376 319.3672  40.7005 15.09670949988670
SEEDS II (CO-66)        
1 32791U 08021J   26190.52242802  .00012875  00000+0  39953-3 0  9990
2 32791  97.7528 189.4990 0002425 169.7411 190.3880 15.33534556990719
YUBILEINY (RS30)        
1 32953U 08025A   26191.35662426  .00000079  00000+0  49889-3 0  9996
2 32953  82.5057 341.0265 0018546 260.2068  99.6918 12.43180772822571
KKS-1 (KISEKI)          
1 33499U 09002H   26191.26213347  .00000791  00000+0  10370-3 0  9996
2 33499  98.1179 114.0700 0007027 206.0437 154.0424 14.83182070939618
SWISSCUBE               
1 35932U 09051B   26191.22499737  .00000600  00000+0  12813-3 0  9992
2 35932  98.4015  99.5130 0007597 132.4528 227.7317 14.62525191892522
BEESAT-1                
1 35933U 09051C   26190.56195696  .00000529  00000+0  11590-3 0  9997
2 35933  98.3943  98.4270 0005799 144.7622 215.3963 14.61756321892450
ITUPSAT1                
1 35935U 09051E   26191.18906354  .00000448  00000+0  10253-3 0  9994
2 35935  98.4025  98.2308 0007739 157.5053 202.6487 14.60474362892091
XIWANG-1 (HOPE-1)       
1 36122U 09072B   26191.27161343 -.00000166  00000+0 -31935-3 0  9996
2 36122 100.4032 144.7360 0007388 175.9266 184.1908 13.16439860796041
O/OREOS (USA 219)       
1 37224U 10062C   26190.96510575  .00001388  00000+0  13649-3 0  9998
2 37224  71.9708  28.7386 0013679  15.3805 344.7778 14.93839355120041
JUGNU                   
1 37839U 11058B   26191.24549707  .00000373  00000+0  55482-4 0  9992
2 37839  19.9589 168.3368 0018418 331.7435 144.8891 14.13782641762294
SRMSAT                  
1 37841U 11058D   26191.25823061  .00000355  00000+0  48960-4 0  9997
2 37841  19.9719 279.8299 0011870  97.3618 287.0554 14.11580397761080
STRAND-1                
1 39090U 13009E   26190.96147681  .00000179  00000+0  74627-4 0  9990
2 39090  98.3931  10.6363 0009122 155.5997 204.5623 14.37176901700334
ZACUBE-1 (TSHEPISOSAT)  
1 39417U 13066B   26190.93595911  .00001765  00000+0  13931-3 0  9998
2 39417  97.8013 153.3861 0043714 172.0573 188.1353 15.01314452684143
GOMX-1                  
1 39430U 13066Q   26191.26882522  .00000978  00000+0  15287-3 0  9998
2 39430  97.6478  30.2751 0128749   4.0424 356.1791 14.69534850673301
